[{"OBJECT_NAME":"IRIDIUM 137","OBJECT_ID":"2017-083G","EPOCH":"2026-03-09T20:35:55.284000","MEAN_MOTION":14.34217602,"ECCENTRICITY":0.00024008,"INCLINATION":86.4028,"RA_OF_ASC_NODE":3.6635,"ARG_OF_PERICENTER":94.3456,"MEAN_ANOMALY":265.8014,"EPHEMERIS_TYPE":0,"CLASSIFICATION_TYPE":"U","NORAD_CAT_ID":43076,"ELEMENT_SET_NO":999,"REV_AT_EPOCH":42993,"BSTAR":5.494784e-6,"MEAN_MOTION_DOT":3.5e-7,"MEAN_MOTION_DDOT":0},{"OBJECT_NAME":"FENGYUN 1C DEB","OBJECT_ID":"1999-025ABK","EPOCH":"2026-03-09T05:21:27.357984","MEAN_MOTION":14.36154915,"ECCENTRICITY":0.00204506,"INCLINATION":98.8572,"RA_OF_ASC_NODE":170.3285,"ARG_OF_PERICENTER":123.656,"MEAN_ANOMALY":266.7356,"EPHEMERIS_TYPE":0,"CLASSIFICATION_TYPE":"U","NORAD_CAT_ID":30348,"ELEMENT_SET_NO":999,"REV_AT_EPOCH":98775,"BSTAR":0.0020473121,"MEAN_MOTION_DOT":5.939e-5,"MEAN_MOTION_DDOT":0}]
